<!DOCTYPE html PUBLIC "-//W3C//DTD XHTML 1.0 Strict//EN" "http://www.w3.org/TR/xhtml1/DTD/xhtml1-strict.dtd">
<html xmlns="http://www.w3.org/1999/xhtml">
<head>
<meta http-equiv="Content-Type" content="text/html; charset=iso-8859-1"/>
<title>404 - File Not Found.</title>
<style type="text/css">
<!--
body{margin:0;font-size:.7em;font-family:Verdana, Arial, Helvetica, sans-serif;background:#EEEEEE;}
fieldset{padding:0 15px 10px 15px;}
h1{font-size:2.4em;margin:0;color:#FFF;}
h2{font-size:1.7em;margin:0;color:#CC0000;}
h3{font-size:1.2em;margin:10px 0 0 0;color:#000000;}
#header{width:96%;margin:0 0 0 0;padding:6px 2% 6px 2%;font-family:"trebuchet MS", Verdana, sans-serif;color:#FFF;
background-color:#555555;}
#content{margin:0 0 0 2%;position:relative;}
.content-container{background:#FFF;width:96%;margin-top:8px;padding:10px;position:relative;}
-->
</style>
</head>
<body>
<div id="header"><h1>Server Error</h1></div>
<div id="content">
 <div class="content-container"><fieldset>
  <h2>404 - File Not Found.</h2>
  <h3>File not found for celestrak.org/NORAD/elements/active.txt.</h3>
  <h3>Please contact <a href="mailto:ts.kelso@celestrak.org">ts.kelso@celestrak.org</a> if you have other questions.</h3>
 </fieldset></div>
</div>
</body>
</html>
SL-16 R/B               
1 31793U 07029B   23364.60274981 -.00000147  00000+0 -51523-4 0  9999
2 31793  70.9767  53.9176 0002352 269.9916 200.3380 14.14585149852212
KORONAS-FOTON           
1 33504U 09003A   23364.54616992  .00005240  00000+0  21924-3 0  9998
2 33504  82.4381  14.0455 0018402 115.2628 245.0518 15.23197368823173
CZ-2C R/B               
1 37731U 11030B   23364.91846650  .00001588  00000+0  22711-3 0  9990
2 37731  97.7414 330.3086 0058574  69.7316 351.2136 14.76825044671869
H-2A R/B                
1 38341U 12025E   23364.67471572  .00002938  00000+0  32477-3 0  9993
2 38341  98.4348 260.6394 0052953  38.2511 322.2441 14.87258316628987
CUSAT 2 & FALCON 9 R/B  
1 39271U 13055G   23365.16138474  .00038497 -57898-6  56324-3 0  9997
2 39271  80.9420 280.2278 0376989 145.0885 217.5704 15.02321636539843
SHIJIAN-16 (SJ-16)      
1 39358U 13057A   23365.12714880  .00001915  00000+0  21108-3 0  9994
2 39358  74.9734 254.0012 0019425 246.4376 113.4770 14.87977308552460
CZ-2C R/B               
1 39364U 13059B   23364.66862529  .00043619  00000+0  59340-3 0  9991
2 39364  97.0739  48.2319 0025864  92.7660 267.6556 15.57048933566609
SL-4 R/B                
1 39679U 14021B   23364.83471023  .00008237  00000+0  33521-3 0  9994
2 39679  51.6078 208.8548 0146057 120.2975 241.2543 15.16154316534047
ALOS-2                  
1 39766U 14029A   23365.16334715  .00001912  00000+0  26278-3 0  9996
2 39766  97.9220  99.2392 0001411 101.9373 258.1996 14.79473104518685
SL-27 R/B               
1 40354U 14084B   23364.89497151  .00022387  00000+0  25892-3 0  9995
2 40354  74.7286 215.0908 0023227 114.5038 245.8611 15.61419486507616
YAOGAN-29               
1 41038U 15069A   23365.13420310  .00000600  00000+0  83622-4 0  9990
2 41038  98.0609  13.5342 0003277  77.5271 282.6307 14.81421958437438
ASTRO-H (HITOMI)        
1 41337U 16012A   23364.65722082  .00003287  00000+0  23573-3 0  9990
2 41337  31.0037  90.4700 0011267 248.7368 111.2065 15.02406863431491
HXMT (HUIYAN)           
1 42758U 17034A   23364.85782051  .00005883  00000+0  32248-3 0  9990
2 42758  43.0145 132.6488 0002981 220.0741 139.9887 15.14868822361160
CZ-2C R/B               
1 43521U 18054D   23364.65101864  .00008725  00000+0  34409-3 0  9996
2 43521  35.1498 104.8397 0063709  41.5796 318.9744 15.22946442304963
SAOCOM 1A               
1 43641U 18076A   23365.09795076  .00001387  00000+0  18088-3 0  9998
2 43641  97.8846 188.7548 0001571  90.5287 269.6106 14.82133730282923
H-2A R/B                
1 43682U 18084L   23364.72260057  .00006758  00000+0  39461-3 0  9992
2 43682  98.8706  59.9827 0047393 212.7949 147.0333 15.11396078283873
SAOCOM 1B               
1 46265U 20059A   23365.12927433  .00000615  00000+0  83754-4 0  9991
2 46265  97.8850 187.8708 0001323  88.1324 272.0041 14.82149534180327
CSS (TIANHE)            
1 48274U 21035A   23365.13950480  .00033903  00000+0  34347-3 0  9996
2 48274  41.4713  35.8865 0006246 106.7797 253.3729 15.64525953152630
COSMOS 2550             
1 48865U 21056A   23364.74647768  .00007462  00000+0  23230-3 0  9993
2 48865  67.1440 300.9226 0008426 268.9630  91.0559 15.33845516140781
2022-019U               
1 51842U 22019U   23365.12847357  .00034472  00000+0  65053-3 0  9991
2 51842  97.5196  97.4264 0041146 355.9234   4.1674 15.47439557102777
CZ-2C R/B               
1 52794U 22058K   23365.15826811  .00007022  00000+0  31514-3 0  9992
2 52794  50.1709 347.8218 0087511 169.6953 190.5822 15.18878979 87392
CZ-2C R/B               
1 53131U 22082D   23365.12623331  .00056148  00000+0  52222-3 0  9996
2 53131  97.3299  25.8255 0021656 224.6841 135.2676 15.66929026 82408
XRISM                   
1 57800U 23137A   23365.14937459  .00004346  00000+0  34275-3 0  9997
2 57800  31.0054   6.7697 0009852 332.6355  27.3760 14.99090510 17282
NOAA 15                 
1 25338U 98030A   23365.12844318  .00000204  00000+0  10278-3 0  9997
2 25338  98.5873  30.6429 0011393  98.3126 261.9347 14.26463198333334
DMSP 5D-3 F16 (USA 172) 
1 28054U 03048A   23365.10510439  .00000179  00000+0  11856-3 0  9996
2 28054  99.0195   5.0110 0007468 164.5780 283.5398 14.13920659 42382
NOAA 18                 
1 28654U 05018A   23365.13043301  .00000273  00000+0  16977-3 0  9997
2 28654  98.8925  78.4055 0014410 178.8549 181.2659 14.13089541959381
METEOSAT-9 (MSG-2)      
1 28912U 05049B   23364.84343427  .00000134  00000+0  00000+0 0  9999
2 28912   7.2975  62.2618 0001298 219.7832 166.3400  1.00276222 66061
EWS-G1 (GOES 13)        
1 29155U 06018A   23364.80288167  .00000012  00000+0  00000+0 0  9996
2 29155   2.1831  87.2869 0087613 247.6030 255.9085  0.99156772 34351
DMSP 5D-3 F17 (USA 191) 
1 29522U 06050A   23365.11856976  .00000198  00000+0  12631-3 0  9996
2 29522  98.7490  14.1582 0010929 101.0988 259.1414 14.14363913885291
FENGYUN 3A              
1 32958U 08026A   23364.87964896  .00000191  00000+0  11188-3 0  9990
2 32958  98.5837 312.1070 0008271 194.5883 165.5056 14.18986293807946
FENGYUN 2E              
1 33463U 08066A   23364.82472159 -.00000193  00000+0  00000+0 0  9997
2 33463   7.1649  61.5677 0001994 258.4202 162.3708  1.00265924 55080
NOAA 19                 
1 33591U 09005A   23365.12946983  .00000230  00000+0  14808-3 0  9994
2 33591  99.0738  53.9519 0014501  51.5513 308.6958 14.12896632767755
GOES 14                 
1 35491U 09033A   23365.17782503 -.00000053  00000+0  00000+0 0  9996
2 35491   0.1186 247.2929 0000527   1.3555 166.1093  1.00272483 53144
DMSP 5D-3 F18 (USA 210) 
1 35951U 09057A   23365.07957518  .00000349  00000+0  20680-3 0  9999
2 35951  98.7937 337.9149 0010225 291.0862  68.9217 14.13951427732464
EWS-G2 (GOES 15)        
1 36411U 10008A   23364.84656709  .00000049  00000+0  00000+0 0  9998
2 36411   0.1248 268.3295 0006223 353.4927 203.2970  1.00275230 50629
COMS 1                  
1 36744U 10032A   23364.93243744 -.00000333  00000+0  00000+0 0  9992
2 36744   2.5047  86.9549 0001065 191.9154 284.1015  1.00272678 42074
FENGYUN 3B              
1 37214U 10059A   23365.15050583  .00000104  00000+0  77988-4 0  9995
2 37214  99.0719  25.7463 0021749 208.0339 238.5838 14.14424248680352
SUOMI NPP               
1 37849U 11061A   23365.16185140  .00000135  00000+0  84816-4 0  9994
2 37849  98.7256 300.6898 0001495  74.9007 285.2334 14.19536375630886
FENGYUN 2F              
1 38049U 12002A   23364.70040030 -.00000348  00000+0  00000+0 0  9995
2 38049   5.1727  74.7997 0001564  42.4192 345.6259  1.00282543 43869
METEOSAT-10 (MSG-3)     
1 38552U 12035B   23364.83438390  .00000004  00000+0  00000+0 0  9992
2 38552   2.5905  59.2902 0001152 221.6824 118.3914  1.00271477 41839
METOP-B                 
1 38771U 12049A   23365.17092410  .00000171  00000+0  98248-4 0  9998
2 38771  98.6538  60.9864 0001501 120.1992 239.9334 14.21446189585530
FENGYUN 3C              
1 39260U 13052A   23365.16494326  .00000114  00000+0  78081-4 0  9998
2 39260  98.4265   8.7680 0012232  94.4705 265.7868 14.16126022531404
METEOR-M 2              
1 40069U 14037A   23365.10006860  .00000169  00000+0  97368-4 0  9996
2 40069  98.4291   1.9816 0006678 123.7340 236.4475 14.20864530491611
HIMAWARI-8              
1 40267U 14060A   23364.93938491 -.00000263  00000+0  00000+0 0  9994
2 40267   0.0184 198.8343 0001238  80.1105 298.9975  1.00272901 33747
FENGYUN 2G              
1 40367U 14090A   23364.85422510 -.00000293  00000+0  00000+0 0  9992
2 40367   3.3564  83.4819 0000659  29.5689  33.1512  1.00278389 32980
METEOSAT-11 (MSG-4)     
1 40732U 15034A   23364.83629840  .00000077  00000+0  00000+0 0  9999
2 40732   0.9876  62.6566 0002272 223.4877 123.5461  1.00280283 30992
ELEKTRO-L 2             
1 41105U 15074A   23364.90313191 -.00000106  00000+0  00000+0 0  9999
2 41105   4.4094  81.5015 0003624 190.1505 138.0722  1.00272712 29488
HIMAWARI-9              
1 41836U 16064A   23365.13944483 -.00000262  00000+0  00000+0 0  9993
2 41836   0.0165  85.4148 0001096 203.0022   1.8447  1.00270893 26283
GOES 16                 
1 41866U 16071A   23364.89103574 -.00000236  00000+0  00000+0 0  9995
2 41866   0.0809 251.9292 0001416  59.2975  33.3831  1.00270573 26085
FENGYUN 4A              
1 41882U 16077A   23364.90327383 -.00000317  00000+0  00000+0 0  9997
2 41882   0.0468  28.4936 0005627   5.8771 134.4673  1.00267929 25969
CYGFM05                 
1 41884U 16078A   23365.12202589  .00007071  00000+0  29111-3 0  9996
2 41884  34.9551 288.2921 0011150  99.6678 260.5296 15.23359459390355
